{
  "type": "FeatureCollection",
  "features": [
    {
      "type": "Feature",
      "properties": {
        "norad_id": 42917,
        "name": "QZS-3 (QZSS/PRN 199)",
        "group": "gnss",
        "lat": 0.04881855304764357,
        "lon": -39.23224010840436,
        "alt_km": 35780.60420539678,
        "timestamp": "2025-12-09T07:41:33.449107+00:00",
        "meta_object_name": "QZS-3 (QZSS/PRN 199)",
        "meta_object_id": "2017-048A",
        "meta_epoch": "2025-12-08T22:46:03.829152",
        "meta_mean_motion": 1.00273567,
        "meta_eccentricity": 0.00021694,
        "meta_inclination": 0.0643,
        "meta_ra_of_asc_node": 206.8554,
        "meta_arg_of_pericenter": 57.1302,
        "meta_mean_anomaly": 282.5226,
        "meta_ephemeris_type": 0,
        "meta_classification_type": "U",
        "meta_norad_cat_id": 42917,
        "meta_element_set_no": 999,
        "meta_rev_at_epoch": 3035,
        "meta_bstar": 0,
        "meta_mean_motion_dot": -3.46e-06,
        "meta_mean_motion_ddot": 0,
        "tle_line1": "1 42917U 17048A   25342.94865543 -.00000346  00000+0  00000+0 0  9995",
        "tle_line2": "2 42917   0.0643 206.8554 0002169  57.1302 282.5226  1.00273567 30353"
      },
      "geometry": {
        "type": "Point",
        "coordinates": [
          -39.23224010840436,
          0.04881855304764357
        ]
      }
    },
    {
      "type": "Feature",
      "properties": {
        "norad_id": 42939,
        "name": "COSMOS 2522 (752)",
        "group": "gnss",
        "lat": -8.78362914512799,
        "lon": 22.660127820321357,
        "alt_km": 19118.1389597631,
        "timestamp": "2025-12-09T07:41:33.449125+00:00",
        "meta_object_name": "COSMOS 2522 (752)",
        "meta_object_id": "2017-055A",
        "meta_epoch": "2025-12-08T03:13:49.063296",
        "meta_mean_motion": 2.13101881,
        "meta_eccentricity": 0.00064484,
        "meta_inclination": 64.0758,
        "meta_ra_of_asc_node": 198.386,
        "meta_arg_of_pericenter": 225.1717,
        "meta_mean_anomaly": 134.8539,
        "meta_ephemeris_type": 0,
        "meta_classification_type": "U",
        "meta_norad_cat_id": 42939,
        "meta_element_set_no": 999,
        "meta_rev_at_epoch": 6390,
        "meta_bstar": 0,
        "meta_mean_motion_dot": 5.1e-07,
        "meta_mean_motion_ddot": 0,
        "tle_line1": "1 42939U 17055A   25342.13459564  .00000051  00000+0  00000+0 0  9992",
        "tle_line2": "2 42939  64.0758 198.3860 0006448 225.1717 134.8539  2.13101881 63907"
      },
      "geometry": {
        "type": "Point",
        "coordinates": [
          22.660127820321357,
          -8.78362914512799
        ]
      }
    },
    {
      "type": "Feature",
      "properties": {
        "norad_id": 42965,
        "name": "QZS-4 (QZSS/PRN 195)",
        "group": "gnss",
        "lat": -4.544523588036283,
        "lon": -19.489250001052326,
        "alt_km": 35087.99614162345,
        "timestamp": "2025-12-09T07:41:33.449144+00:00",
        "meta_object_name": "QZS-4 (QZSS/PRN 195)",
        "meta_object_id": "2017-062A",
        "meta_epoch": "2025-12-08T21:03:55.467648",
        "meta_mean_motion": 1.00253453,
        "meta_eccentricity": 0.07523042,
        "meta_inclination": 40.2277,
        "meta_ra_of_asc_node": 345.9194,
        "meta_arg_of_pericenter": 271.4557,
        "meta_mean_anomaly": 273.1937,
        "meta_ephemeris_type": 0,
        "meta_classification_type": "U",
        "meta_norad_cat_id": 42965,
        "meta_element_set_no": 999,
        "meta_rev_at_epoch": 2989,
        "meta_bstar": 0,
        "meta_mean_motion_dot": -3.54e-06,
        "meta_mean_motion_ddot": 0,
        "tle_line1": "1 42965U 17062A   25342.87772532 -.00000354  00000+0  00000+0 0  9990",
        "tle_line2": "2 42965  40.2277 345.9194 0752304 271.4557 273.1937  1.00253453 29890"
      },
      "geometry": {
        "type": "Point",
        "coordinates": [
          -19.489250001052326,
          -4.544523588036283
        ]
      }
    },
    {
      "type": "Feature",
      "properties": {
        "norad_id": 43001,
        "name": "BEIDOU-3 M1 (C19)",
        "group": "gnss",
        "lat": -0.5362667225743892,
        "lon": -110.2892792052602,
        "alt_km": 21542.210227276642,
        "timestamp": "2025-12-09T07:41:33.449162+00:00",
        "meta_object_name": "BEIDOU-3 M1 (C19)",
        "meta_object_id": "2017-069A",
        "meta_epoch": "2025-12-07T23:26:52.374048",
        "meta_mean_motion": 1.86230858,
        "meta_eccentricity": 0.00090173,
        "meta_inclination": 56.5233,
        "meta_ra_of_asc_node": 69.3913,
        "meta_arg_of_pericenter": 303.8137,
        "meta_mean_anomaly": 56.1206,
        "meta_ephemeris_type": 0,
        "meta_classification_type": "U",
        "meta_norad_cat_id": 43001,
        "meta_element_set_no": 999,
        "meta_rev_at_epoch": 5504,
        "meta_bstar": 0,
        "meta_mean_motion_dot": -4.4e-07,
        "meta_mean_motion_ddot": 0,
        "tle_line1": "1 43001U 17069A   25341.97699507 -.00000044  00000+0  00000+0 0  9995",
        "tle_line2": "2 43001  56.5233  69.3913 0009017 303.8137  56.1206  1.86230858 55042"
      },
      "geometry": {
        "type": "Point",
        "coordinates": [
          -110.2892792052602,
          -0.5362667225743892
        ]
      }
    },
    {
      "type": "Feature",
      "properties": {
        "norad_id": 43002,
        "name": "BEIDOU-3 M2 (C20)",
        "group": "gnss",
        "lat": -33.962661949105886,
        "lon": -84.17907945654642,
        "alt_km": 21538.103941263384,
        "timestamp": "2025-12-09T07:41:33.449179+00:00",
        "meta_object_name": "BEIDOU-3 M2 (C20)",
        "meta_object_id": "2017-069B",
        "meta_epoch": "2025-12-08T10:51:18.927360",
        "meta_mean_motion": 1.86230678,
        "meta_eccentricity": 0.00063835,
        "meta_inclination": 56.5226,
        "meta_ra_of_asc_node": 69.4117,
        "meta_arg_of_pericenter": 330.8717,
        "meta_mean_anomaly": 29.1139,
        "meta_ephemeris_type": 0,
        "meta_classification_type": "U",
        "meta_norad_cat_id": 43002,
        "meta_element_set_no": 999,
        "meta_rev_at_epoch": 5504,
        "meta_bstar": 0,
        "meta_mean_motion_dot": -4.4e-07,
        "meta_mean_motion_ddot": 0,
        "tle_line1": "1 43002U 17069B   25342.45230240 -.00000044  00000+0  00000+0 0  9995",
        "tle_line2": "2 43002  56.5226  69.4117 0006383 330.8717  29.1139  1.86230678 55044"
      },
      "geometry": {
        "type": "Point",
        "coordinates": [
          -84.17907945654642,
          -33.962661949105886
        ]
      }
    },
    {
      "type": "Feature",
      "properties": {
        "norad_id": 43055,
        "name": "GSAT0215 (GALILEO 19)",
        "group": "gnss",
        "lat": -31.32914587502749,
        "lon": 71.83215692823595,
        "alt_km": 23228.247160842613,
        "timestamp": "2025-12-09T07:41:33.449197+00:00",
        "meta_object_name": "GSAT0215 (GALILEO 19)",
        "meta_object_id": "2017-079A",
        "meta_epoch": "2025-12-07T04:52:59.599776",
        "meta_mean_motion": 1.70473814,
        "meta_eccentricity": 0.00012904,
        "meta_inclination": 55.132,
        "meta_ra_of_asc_node": 226.7905,
        "meta_arg_of_pericenter": 342.2986,
        "meta_mean_anomaly": 17.7924,
        "meta_ephemeris_type": 0,
        "meta_classification_type": "U",
        "meta_norad_cat_id": 43055,
        "meta_element_set_no": 999,
        "meta_rev_at_epoch": 4971,
        "meta_bstar": 0,
        "meta_mean_motion_dot": 2.6e-07,
        "meta_mean_motion_ddot": 0,
        "tle_line1": "1 43055U 17079A   25341.20346759  .00000026  00000+0  00000+0 0  9998",
        "tle_line2": "2 43055  55.1320 226.7905 0001290 342.2986  17.7924  1.70473814 49718"
      },
      "geometry": {
        "type": "Point",
        "coordinates": [
          71.83215692823595,
          -31.32914587502749
        ]
      }
    },
    {
      "type": "Feature",
      "properties": {
        "norad_id": 43056,
        "name": "GSAT0216 (GALILEO 20)",
        "group": "gnss",
        "lat": 32.23469736207152,
        "lon": -107.20045213013726,
        "alt_km": 23217.232459481595,
        "timestamp": "2025-12-09T07:41:33.449217+00:00",
        "meta_object_name": "GSAT0216 (GALILEO 20)",
        "meta_object_id": "2017-079B",
        "meta_epoch": "2025-12-08T01:57:06.766848",
        "meta_mean_motion": 1.70473892,
        "meta_eccentricity": 0.00025149,
        "meta_inclination": 55.132,
        "meta_ra_of_asc_node": 226.7661,
        "meta_arg_of_pericenter": 318.3772,
        "meta_mean_anomaly": 41.6956,
        "meta_ephemeris_type": 0,
        "meta_classification_type": "U",
        "meta_norad_cat_id": 43056,
        "meta_element_set_no": 999,
        "meta_rev_at_epoch": 4974,
        "meta_bstar": 0,
        "meta_mean_motion_dot": 1.9e-07,
        "meta_mean_motion_ddot": 0,
        "tle_line1": "1 43056U 17079B   25342.08132832  .00000019  00000+0  00000+0 0  9993",
        "tle_line2": "2 43056  55.1320 226.7661 0002514 318.3772  41.6956  1.70473892 49745"
      },
      "geometry": {
        "type": "Point",
        "coordinates": [
          -107.20045213013726,
          32.23469736207152
        ]
      }
    }
  ]
}